KUIPER-00144            
1 67133U 25301A   26003.11839003  .00040007  00000+0  11359-2 0  9998
2 67133  51.8706  22.0346 0006327 142.0251 218.1182 15.35790280  3656
KUIPER-00164            
1 67134U 25301B   26003.11032003  .00050999  00000+0  14140-2 0  9996
2 67134  51.8729  21.9832 0002991 121.8184 238.3094 15.36433944  3831
KUIPER-00175            
1 67135U 25301C   26003.10468103  .00069999  00000+0  19005-2 0  9995
2 67135  51.8745  21.9419 0002792  71.2299 288.8990 15.36945003  3722
KUIPER-00179            
1 67136U 25301D   26003.10859373  .00031012  00000+0  86399-3 0  9995
2 67136  51.8744  21.9696 0003255 104.7499 255.3848 15.36517270  3832
KUIPER-00181            
1 67137U 25301E   26003.13056194  .00048885  00000+0  14297-2 0  9992
2 67137  51.8641  22.1091 0010415 168.7434 191.3786 15.34735459  3813
KUIPER-00183            
1 67138U 25301F   26003.13415411  .00040678  00000+0  12013-2 0  9990
2 67138  51.8614  22.1291 0011093 171.3018 188.8162 15.34506420  3821
KUIPER-00184            
1 67139U 25301G   26003.12967360  .00033742  00000+0  99034-3 0  9998
2 67139  51.8629  22.1019 0009217 167.0742 193.0482 15.34807629  3937
KUIPER-00186            
1 67140U 25301H   26003.12295849  .00045819  00000+0  13113-2 0  9997
2 67140  51.8687  22.0635 0007692 153.8077 206.3299 15.35468312  3651
KUIPER-00187            
1 67141U 25301J   26003.11384374  .00080200  00000+0  22304-2 0  9994
2 67141  51.8716  22.0064 0004765 138.0191 222.1161 15.36128508  3656
KUIPER-00188            
1 67142U 25301K   26003.12402223  .00034536  00000+0  99458-3 0  9996
2 67142  51.8698  22.0708 0007646 158.3959 201.7350 15.35405819  3654
KUIPER-00191            
1 67143U 25301L   26003.12163032  .00039592  00000+0  11341-2 0  9990
2 67143  51.8677  22.0551 0006474 153.1990 206.9331 15.35514923  3680
KUIPER-00196            
1 67144U 25301M   26003.11170236  .00050368  00000+0  14018-2 0  9992
2 67144  51.8737  21.9912 0003791 116.8931 243.2443 15.36319163  3652
