CCSDS_OMM_VERS = 2.0
CREATION_DATE  = 
ORIGINATOR     = 

OBJECT_NAME    = KUIPER-00144
OBJECT_ID      = 2025-301A
CENTER_NAME    = EARTH
REF_FRAME      = TEME
TIME_SYSTEM    = UTC
MEAN_ELEMENT_THEORY = SGP/SGP4

EPOCH          = 2026-01-03T02:50:28.898592
MEAN_MOTION    = 15.35790280
ECCENTRICITY   = .0006327
INCLINATION    = 51.8706
RA_OF_ASC_NODE = 22.0346
ARG_OF_PERICENTER = 142.0251
MEAN_ANOMALY   = 218.1182

EPHEMERIS_TYPE = 0
CLASSIFICATION_TYPE = U
NORAD_CAT_ID   = 67133
ELEMENT_SET_NO = 999
REV_AT_EPOCH   = 365
BSTAR          = .11359E-2
MEAN_MOTION_DOT = .40007E-3
MEAN_MOTION_DDOT = 0

CCSDS_OMM_VERS = 2.0
CREATION_DATE  = 
ORIGINATOR     = 

OBJECT_NAME    = KUIPER-00164
OBJECT_ID      = 2025-301B
CENTER_NAME    = EARTH
REF_FRAME      = TEME
TIME_SYSTEM    = UTC
MEAN_ELEMENT_THEORY = SGP/SGP4

EPOCH          = 2026-01-03T02:38:51.650592
MEAN_MOTION    = 15.36433944
ECCENTRICITY   = .0002991
INCLINATION    = 51.8729
RA_OF_ASC_NODE = 21.9832
ARG_OF_PERICENTER = 121.8184
MEAN_ANOMALY   = 238.3094

EPHEMERIS_TYPE = 0
CLASSIFICATION_TYPE = U
NORAD_CAT_ID   = 67134
ELEMENT_SET_NO = 999
REV_AT_EPOCH   = 383
BSTAR          = .1414E-2
MEAN_MOTION_DOT = .50999E-3
MEAN_MOTION_DDOT = 0

CCSDS_OMM_VERS = 2.0
CREATION_DATE  = 
ORIGINATOR     = 

OBJECT_NAME    = KUIPER-00175
OBJECT_ID      = 2025-301C
CENTER_NAME    = EARTH
REF_FRAME      = TEME
TIME_SYSTEM    = UTC
MEAN_ELEMENT_THEORY = SGP/SGP4

EPOCH          = 2026-01-03T02:30:44.440992
MEAN_MOTION    = 15.36945003
ECCENTRICITY   = .0002792
INCLINATION    = 51.8745
RA_OF_ASC_NODE = 21.9419
ARG_OF_PERICENTER = 71.2299
MEAN_ANOMALY   = 288.8990

EPHEMERIS_TYPE = 0
CLASSIFICATION_TYPE = U
NORAD_CAT_ID   = 67135
ELEMENT_SET_NO = 999
REV_AT_EPOCH   = 372
BSTAR          = .19005E-2
MEAN_MOTION_DOT = .69999E-3
MEAN_MOTION_DDOT = 0

CCSDS_OMM_VERS = 2.0
CREATION_DATE  = 
ORIGINATOR     = 

OBJECT_NAME    = KUIPER-00179
OBJECT_ID      = 2025-301D
CENTER_NAME    = EARTH
REF_FRAME      = TEME
TIME_SYSTEM    = UTC
MEAN_ELEMENT_THEORY = SGP/SGP4

EPOCH          = 2026-01-03T02:36:22.498272
MEAN_MOTION    = 15.36517270
ECCENTRICITY   = .0003255
INCLINATION    = 51.8744
RA_OF_ASC_NODE = 21.9696
ARG_OF_PERICENTER = 104.7499
MEAN_ANOMALY   = 255.3848

EPHEMERIS_TYPE = 0
CLASSIFICATION_TYPE = U
NORAD_CAT_ID   = 67136
ELEMENT_SET_NO = 999
REV_AT_EPOCH   = 383
BSTAR          = .86399E-3
MEAN_MOTION_DOT = .31012E-3
MEAN_MOTION_DDOT = 0

CCSDS_OMM_VERS = 2.0
CREATION_DATE  = 
ORIGINATOR     = 

OBJECT_NAME    = KUIPER-00181
OBJECT_ID      = 2025-301E
CENTER_NAME    = EARTH
REF_FRAME      = TEME
TIME_SYSTEM    = UTC
MEAN_ELEMENT_THEORY = SGP/SGP4

EPOCH          = 2026-01-03T03:08:00.551616
MEAN_MOTION    = 15.34735459
ECCENTRICITY   = .0010415
INCLINATION    = 51.8641
RA_OF_ASC_NODE = 22.1091
ARG_OF_PERICENTER = 168.7434
MEAN_ANOMALY   = 191.3786

EPHEMERIS_TYPE = 0
CLASSIFICATION_TYPE = U
NORAD_CAT_ID   = 67137
ELEMENT_SET_NO = 999
REV_AT_EPOCH   = 381
BSTAR          = .14297E-2
MEAN_MOTION_DOT = .48885E-3
MEAN_MOTION_DDOT = 0

CCSDS_OMM_VERS = 2.0
CREATION_DATE  = 
ORIGINATOR     = 

OBJECT_NAME    = KUIPER-00183
OBJECT_ID      = 2025-301F
CENTER_NAME    = EARTH
REF_FRAME      = TEME
TIME_SYSTEM    = UTC
MEAN_ELEMENT_THEORY = SGP/SGP4

EPOCH          = 2026-01-03T03:13:10.915104
MEAN_MOTION    = 15.34506420
ECCENTRICITY   = .0011093
INCLINATION    = 51.8614
RA_OF_ASC_NODE = 22.1291
ARG_OF_PERICENTER = 171.3018
MEAN_ANOMALY   = 188.8162

EPHEMERIS_TYPE = 0
CLASSIFICATION_TYPE = U
NORAD_CAT_ID   = 67138
ELEMENT_SET_NO = 999
REV_AT_EPOCH   = 382
BSTAR          = .12013E-2
MEAN_MOTION_DOT = .40678E-3
MEAN_MOTION_DDOT = 0

CCSDS_OMM_VERS = 2.0
CREATION_DATE  = 
ORIGINATOR     = 

OBJECT_NAME    = KUIPER-00184
OBJECT_ID      = 2025-301G
CENTER_NAME    = EARTH
REF_FRAME      = TEME
TIME_SYSTEM    = UTC
MEAN_ELEMENT_THEORY = SGP/SGP4

EPOCH          = 2026-01-03T03:06:43.799040
MEAN_MOTION    = 15.34807629
ECCENTRICITY   = .0009217
INCLINATION    = 51.8629
RA_OF_ASC_NODE = 22.1019
ARG_OF_PERICENTER = 167.0742
MEAN_ANOMALY   = 193.0482

EPHEMERIS_TYPE = 0
CLASSIFICATION_TYPE = U
NORAD_CAT_ID   = 67139
ELEMENT_SET_NO = 999
REV_AT_EPOCH   = 393
BSTAR          = .99034E-3
MEAN_MOTION_DOT = .33742E-3
MEAN_MOTION_DDOT = 0

CCSDS_OMM_VERS = 2.0
CREATION_DATE  = 
ORIGINATOR     = 

OBJECT_NAME    = KUIPER-00186
OBJECT_ID      = 2025-301H
CENTER_NAME    = EARTH
REF_FRAME      = TEME
TIME_SYSTEM    = UTC
MEAN_ELEMENT_THEORY = SGP/SGP4

EPOCH          = 2026-01-03T02:57:03.613536
MEAN_MOTION    = 15.35468312
ECCENTRICITY   = .0007692
INCLINATION    = 51.8687
RA_OF_ASC_NODE = 22.0635
ARG_OF_PERICENTER = 153.8077
MEAN_ANOMALY   = 206.3299

EPHEMERIS_TYPE = 0
CLASSIFICATION_TYPE = U
NORAD_CAT_ID   = 67140
ELEMENT_SET_NO = 999
REV_AT_EPOCH   = 365
BSTAR          = .13113E-2
MEAN_MOTION_DOT = .45819E-3
MEAN_MOTION_DDOT = 0

CCSDS_OMM_VERS = 2.0
CREATION_DATE  = 
ORIGINATOR     = 

OBJECT_NAME    = KUIPER-00187
OBJECT_ID      = 2025-301J
CENTER_NAME    = EARTH
REF_FRAME      = TEME
TIME_SYSTEM    = UTC
MEAN_ELEMENT_THEORY = SGP/SGP4

EPOCH          = 2026-01-03T02:43:56.099136
MEAN_MOTION    = 15.36128508
ECCENTRICITY   = .0004765
INCLINATION    = 51.8716
RA_OF_ASC_NODE = 22.0064
ARG_OF_PERICENTER = 138.0191
MEAN_ANOMALY   = 222.1161

EPHEMERIS_TYPE = 0
CLASSIFICATION_TYPE = U
NORAD_CAT_ID   = 67141
ELEMENT_SET_NO = 999
REV_AT_EPOCH   = 365
BSTAR          = .22304E-2
MEAN_MOTION_DOT = .802E-3
MEAN_MOTION_DDOT = 0

CCSDS_OMM_VERS = 2.0
CREATION_DATE  = 
ORIGINATOR     = 

OBJECT_NAME    = KUIPER-00188
OBJECT_ID      = 2025-301K
CENTER_NAME    = EARTH
REF_FRAME      = TEME
TIME_SYSTEM    = UTC
MEAN_ELEMENT_THEORY = SGP/SGP4

EPOCH          = 2026-01-03T02:58:35.520672
MEAN_MOTION    = 15.35405819
ECCENTRICITY   = .0007646
INCLINATION    = 51.8698
RA_OF_ASC_NODE = 22.0708
ARG_OF_PERICENTER = 158.3959
MEAN_ANOMALY   = 201.7350

EPHEMERIS_TYPE = 0
CLASSIFICATION_TYPE = U
NORAD_CAT_ID   = 67142
ELEMENT_SET_NO = 999
REV_AT_EPOCH   = 365
BSTAR          = .99458E-3
MEAN_MOTION_DOT = .34536E-3
MEAN_MOTION_DDOT = 0

CCSDS_OMM_VERS = 2.0
CREATION_DATE  = 
ORIGINATOR     = 

OBJECT_NAME    = KUIPER-00191
OBJECT_ID      = 2025-301L
CENTER_NAME    = EARTH
REF_FRAME      = TEME
TIME_SYSTEM    = UTC
MEAN_ELEMENT_THEORY = SGP/SGP4

EPOCH          = 2026-01-03T02:55:08.859648
MEAN_MOTION    = 15.35514923
ECCENTRICITY   = .0006474
INCLINATION    = 51.8677
RA_OF_ASC_NODE = 22.0551
ARG_OF_PERICENTER = 153.1990
MEAN_ANOMALY   = 206.9331

EPHEMERIS_TYPE = 0
CLASSIFICATION_TYPE = U
NORAD_CAT_ID   = 67143
ELEMENT_SET_NO = 999
REV_AT_EPOCH   = 368
BSTAR          = .11341E-2
MEAN_MOTION_DOT = .39592E-3
MEAN_MOTION_DDOT = 0

CCSDS_OMM_VERS = 2.0
CREATION_DATE  = 
ORIGINATOR     = 

OBJECT_NAME    = KUIPER-00196
OBJECT_ID      = 2025-301M
CENTER_NAME    = EARTH
REF_FRAME      = TEME
TIME_SYSTEM    = UTC
MEAN_ELEMENT_THEORY = SGP/SGP4

EPOCH          = 2026-01-03T02:40:51.083904
MEAN_MOTION    = 15.36319163
ECCENTRICITY   = .0003791
INCLINATION    = 51.8737
RA_OF_ASC_NODE = 21.9912
ARG_OF_PERICENTER = 116.8931
MEAN_ANOMALY   = 243.2443

EPHEMERIS_TYPE = 0
CLASSIFICATION_TYPE = U
NORAD_CAT_ID   = 67144
ELEMENT_SET_NO = 999
REV_AT_EPOCH   = 365
BSTAR          = .14018E-2
MEAN_MOTION_DOT = .50368E-3
MEAN_MOTION_DDOT = 0

